[{"OBJECT_NAME":"STARLINK-34640","OBJECT_ID":"2025-167Q","EPOCH":"2026-03-09T05:00:29.304000","MEAN_MOTION":15.3018414,"ECCENTRICITY":0.00014422,"INCLINATION":53.1618,"RA_OF_ASC_NODE":29.0744,"ARG_OF_PERICENTER":60.4833,"MEAN_ANOMALY":299.6311,"EPHEMERIS_TYPE":0,"CLASSIFICATION_TYPE":"U","NORAD_CAT_ID":65092,"ELEMENT_SET_NO":999,"REV_AT_EPOCH":3340,"BSTAR":-0.00070455422,"MEAN_MOTION_DOT":-0.00021157,"MEAN_MOTION_DDOT":0},{"OBJECT_NAME":"CZ-6A DEB","OBJECT_ID":"2022-151TQ","EPOCH":"2026-03-09T06:57:26.684352","MEAN_MOTION":15.22919125,"ECCENTRICITY":0.00409545,"INCLINATION":98.8216,"RA_OF_ASC_NODE":191.4692,"ARG_OF_PERICENTER":160.8215,"MEAN_ANOMALY":199.457,"EPHEMERIS_TYPE":0,"CLASSIFICATION_TYPE":"U","NORAD_CAT_ID":54975,"ELEMENT_SET_NO":999,"REV_AT_EPOCH":17711,"BSTAR":0.0066825196,"MEAN_MOTION_DOT":0.00163663,"MEAN_MOTION_DDOT":0}]
